FLOCK 4Q-16             
1 58271U 23174R   26196.76999659  .00014983  00000+0  26505-3 0  9999
2 58271  97.3828 285.5643 0006804  75.5053 284.6953 15.50388187150007
FLOCK 4Q-11             
1 58273U 23174T   26196.54927093  .00018125  00000+0  31459-3 0  9996
2 58273  97.3864 285.9746 0006305  70.2121 289.9810 15.50888928149984
FLOCK 4Q-28             
1 58280U 23174AA  26196.79360704  .00021181  00000+0  29680-3 0  9990
2 58280  97.3889 288.9662 0004716  62.7662 297.4073 15.56789920150197
FLOCK 4Q-27             
1 58282U 23174AC  26196.92386564  .00019571  00000+0  27244-3 0  9993
2 58282  97.3815 288.5075 0003940  67.5058 292.6614 15.56987942150228
FLOCK 4Q-7              
1 58318U 23174BQ  26196.81335250  .00022829  00000+0  31263-3 0  9993
2 58318  97.3917 289.3135 0004488  40.6833 319.4757 15.57396589150204
FLOCK 4Q-2              
1 58320U 23174BS  26196.92124756  .00014825  00000+0  25807-3 0  9999
2 58320  97.3845 286.0685 0004742  49.5428 310.6237 15.50860211150052
FLOCK 4Q-9              
1 58322U 23174BU  26196.80870125  .00017757  00000+0  30308-3 0  9995
2 58322  97.3858 286.0650 0005631  48.2921 311.8812 15.51372062150024
FLOCK 4Q-4              
1 58327U 23174BZ  26196.82355278  .00014541  00000+0  26202-3 0  9995
2 58327  97.3835 285.1934 0005700  72.3370 287.8504 15.49879010149998
FLOCK 4Q-13             
1 58328U 23174CA  26196.80735804  .00014853  00000+0  24039-3 0  9993
2 58328  97.4008 288.4860 0005871  53.9493 306.2303 15.52901719150111
FLOCK 4BE-18            
1 60480U 24149N   26196.75769701  .00008793  00000+0  20330-3 0  9991
2 60480  97.3730 280.8033 0005086 142.8570 217.3031 15.42723131106710
FLOCK 4BE-7             
1 60481U 24149P   26196.79133047  .00015655  00000+0  37539-3 0  9998
2 60481  97.3758 280.1263 0004320 147.1516 213.0000 15.41474589106658
FLOCK 4BE-36            
1 60486U 24149U   26196.77870703  .00011285  00000+0  25316-3 0  9993
2 60486  97.3744 281.5656 0004790 151.4812 208.6698 15.43554782106768
FLOCK 4BE-25            
1 60487U 24149V   26196.75760987  .00009067  00000+0  23266-3 0  9991
2 60487  97.3797 280.1150 0003586 140.9347 219.2158 15.39556376106630
FLOCK 4BE-31            
1 60488U 24149W   26196.78190743  .00014231  00000+0  30174-3 0  9997
2 60488  97.3798 282.5137 0003803 150.1201 210.0266 15.45174995106793
FLOCK 4BE-20            
1 60489U 24149X   26196.21478742  .00008882  00000+0  23350-3 0  9997
2 60489  97.3694 278.3768 0005036 154.2664 205.8833 15.38813036106521
FLOCK 4BE-23            
1 60490U 24149Y   26196.79809213  .00008682  00000+0  23157-3 0  9996
2 60490  97.3779 279.3539 0004706 154.7187 205.4289 15.38375662106598
