{"fetched_at":"2026-07-16T06:42:35.236Z","source":"https://celestrak.org/NORAD/elements/gp.php?GROUP=planet&FORMAT=JSON","constellation":"superdove","records":[{"OBJECT_NAME":"FLOCK 4Q-16","OBJECT_ID":"2023-174R","EPOCH":"2026-07-15T18:28:47.705376","CLASSIFICATION_TYPE":"U","MEAN_MOTION":15.50388187,"ECCENTRICITY":0.00068044,"INCLINATION":97.3828,"RA_OF_ASC_NODE":285.5643,"ARG_OF_PERICENTER":75.5053,"MEAN_ANOMALY":284.6953,"EPHEMERIS_TYPE":0,"NORAD_CAT_ID":58271,"ELEMENT_SET_NO":999,"REV_AT_EPOCH":15000,"BSTAR":0.00026504801,"MEAN_MOTION_DOT":0.00014983,"MEAN_MOTION_DDOT":0},{"OBJECT_NAME":"FLOCK 4Q-11","OBJECT_ID":"2023-174T","EPOCH":"2026-07-15T13:10:57.008352","CLASSIFICATION_TYPE":"U","MEAN_MOTION":15.50888928,"ECCENTRICITY":0.00063053,"INCLINATION":97.3864,"RA_OF_ASC_NODE":285.9746,"ARG_OF_PERICENTER":70.2121,"MEAN_ANOMALY":289.981,"EPHEMERIS_TYPE":0,"NORAD_CAT_ID":58273,"ELEMENT_SET_NO":999,"REV_AT_EPOCH":14998,"BSTAR":0.00031459488,"MEAN_MOTION_DOT":0.00018125,"MEAN_MOTION_DDOT":0},{"OBJECT_NAME":"FLOCK 4Q-28","OBJECT_ID":"2023-174AA","EPOCH":"2026-07-15T19:02:47.648256","CLASSIFICATION_TYPE":"U","MEAN_MOTION":15.5678992,"ECCENTRICITY":0.00047162,"INCLINATION":97.3889,"RA_OF_ASC_NODE":288.9662,"ARG_OF_PERICENTER":62.7662,"MEAN_ANOMALY":297.4073,"EPHEMERIS_TYPE":0,"NORAD_CAT_ID":58280,"ELEMENT_SET_NO":999,"REV_AT_EPOCH":15019,"BSTAR":0.00029680318,"MEAN_MOTION_DOT":0.00021181,"MEAN_MOTION_DDOT":0},{"OBJECT_NAME":"FLOCK 4Q-27","OBJECT_ID":"2023-174AC","EPOCH":"2026-07-15T22:10:21.991296","CLASSIFICATION_TYPE":"U","MEAN_MOTION":15.56987942,"ECCENTRICITY":0.00039403,"INCLINATION":97.3815,"RA_OF_ASC_NODE":288.5075,"ARG_OF_PERICENTER":67.5058,"MEAN_ANOMALY":292.6614,"EPHEMERIS_TYPE":0,"NORAD_CAT_ID":58282,"ELEMENT_SET_NO":999,"REV_AT_EPOCH":15022,"BSTAR":0.00027244139,"MEAN_MOTION_DOT":0.00019571,"MEAN_MOTION_DDOT":0},{"OBJECT_NAME":"FLOCK 4Q-7","OBJECT_ID":"2023-174BQ","EPOCH":"2026-07-15T19:31:13.656000","CLASSIFICATION_TYPE":"U","MEAN_MOTION":15.57396589,"ECCENTRICITY":0.0004488,"INCLINATION":97.3917,"RA_OF_ASC_NODE":289.3135,"ARG_OF_PERICENTER":40.6833,"MEAN_ANOMALY":319.4757,"EPHEMERIS_TYPE":0,"NORAD_CAT_ID":58318,"ELEMENT_SET_NO":999,"REV_AT_EPOCH":15020,"BSTAR":0.0003126332,"MEAN_MOTION_DOT":0.00022829,"MEAN_MOTION_DDOT":0},{"OBJECT_NAME":"FLOCK 4Q-2","OBJECT_ID":"2023-174BS","EPOCH":"2026-07-15T22:06:35.789184","CLASSIFICATION_TYPE":"U","MEAN_MOTION":15.50860211,"ECCENTRICITY":0.00047425,"INCLINATION":97.3845,"RA_OF_ASC_NODE":286.0685,"ARG_OF_PERICENTER":49.5428,"MEAN_ANOMALY":310.6237,"EPHEMERIS_TYPE":0,"NORAD_CAT_ID":58320,"ELEMENT_SET_NO":999,"REV_AT_EPOCH":15005,"BSTAR":0.00025806636,"MEAN_MOTION_DOT":0.00014825,"MEAN_MOTION_DDOT":0},{"OBJECT_NAME":"FLOCK 4Q-9","OBJECT_ID":"2023-174BU","EPOCH":"2026-07-15T19:24:31.788000","CLASSIFICATION_TYPE":"U","MEAN_MOTION":15.51372062,"ECCENTRICITY":0.00056312,"INCLINATION":97.3858,"RA_OF_ASC_NODE":286.065,"ARG_OF_PERICENTER":48.2921,"MEAN_ANOMALY":311.8812,"EPHEMERIS_TYPE":0,"NORAD_CAT_ID":58322,"ELEMENT_SET_NO":999,"REV_AT_EPOCH":15002,"BSTAR":0.00030307543,"MEAN_MOTION_DOT":0.00017757,"MEAN_MOTION_DDOT":0},{"OBJECT_NAME":"FLOCK 4Q-4","OBJECT_ID":"2023-174BZ","EPOCH":"2026-07-15T19:45:54.960192","CLASSIFICATION_TYPE":"U","MEAN_MOTION":15.4987901,"ECCENTRICITY":0.00057009,"INCLINATION":97.3835,"RA_OF_ASC_NODE":285.1934,"ARG_OF_PERICENTER":72.337,"MEAN_ANOMALY":287.8504,"EPHEMERIS_TYPE":0,"NORAD_CAT_ID":58327,"ELEMENT_SET_NO":999,"REV_AT_EPOCH":14999,"BSTAR":0.00026201845,"MEAN_MOTION_DOT":0.00014541,"MEAN_MOTION_DDOT":0},{"OBJECT_NAME":"FLOCK 4Q-13","OBJECT_ID":"2023-174CA","EPOCH":"2026-07-15T19:22:35.734656","CLASSIFICATION_TYPE":"U","MEAN_MOTION":15.52901719,"ECCENTRICITY":0.00058714,"INCLINATION":97.4008,"RA_OF_ASC_NODE":288.486,"ARG_OF_PERICENTER":53.9493,"MEAN_ANOMALY":306.2303,"EPHEMERIS_TYPE":0,"NORAD_CAT_ID":58328,"ELEMENT_SET_NO":999,"REV_AT_EPOCH":15011,"BSTAR":0.00024039085,"MEAN_MOTION_DOT":0.00014853,"MEAN_MOTION_DDOT":0},{"OBJECT_NAME":"FLOCK 4BE-18","OBJECT_ID":"2024-149N","EPOCH":"2026-07-15T18:11:05.021664","CLASSIFICATION_TYPE":"U","MEAN_MOTION":15.42723131,"ECCENTRICITY":0.00050865,"INCLINATION":97.373,"RA_OF_ASC_NODE":280.8033,"ARG_OF_PERICENTER":142.857,"MEAN_ANOMALY":217.3031,"EPHEMERIS_TYPE":0,"NORAD_CAT_ID":60480,"ELEMENT_SET_NO":999,"REV_AT_EPOCH":10671,"BSTAR":0.00020329548,"MEAN_MOTION_DOT":0.00008793,"MEAN_MOTION_DDOT":0},{"OBJECT_NAME":"FLOCK 4BE-7","OBJECT_ID":"2024-149P","EPOCH":"2026-07-15T18:59:30.952608","CLASSIFICATION_TYPE":"U","MEAN_MOTION":15.41474589,"ECCENTRICITY":0.00043206,"INCLINATION":97.3758,"RA_OF_ASC_NODE":280.1263,"ARG_OF_PERICENTER":147.1516,"MEAN_ANOMALY":213,"EPHEMERIS_TYPE":0,"NORAD_CAT_ID":60481,"ELEMENT_SET_NO":999,"REV_AT_EPOCH":10665,"BSTAR":0.00037538818,"MEAN_MOTION_DOT":0.00015655,"MEAN_MOTION_DDOT":0},{"OBJECT_NAME":"FLOCK 4BE-36","OBJECT_ID":"2024-149U","EPOCH":"2026-07-15T18:41:20.287392","CLASSIFICATION_TYPE":"U","MEAN_MOTION":15.43554782,"ECCENTRICITY":0.00047909,"INCLINATION":97.3744,"RA_OF_ASC_NODE":281.5656,"ARG_OF_PERICENTER":151.4812,"MEAN_ANOMALY":208.6698,"EPHEMERIS_TYPE":0,"NORAD_CAT_ID":60486,"ELEMENT_SET_NO":999,"REV_AT_EPOCH":10676,"BSTAR":0.00025316159,"MEAN_MOTION_DOT":0.00011285,"MEAN_MOTION_DDOT":0},{"OBJECT_NAME":"FLOCK 4BE-25","OBJECT_ID":"2024-149V","EPOCH":"2026-07-15T18:10:57.492768","CLASSIFICATION_TYPE":"U","MEAN_MOTION":15.39556376,"ECCENTRICITY":0.00035865,"INCLINATION":97.3797,"RA_OF_ASC_NODE":280.115,"ARG_OF_PERICENTER":140.9347,"MEAN_ANOMALY":219.2158,"EPHEMERIS_TYPE":0,"NORAD_CAT_ID":60487,"ELEMENT_SET_NO":999,"REV_AT_EPOCH":10663,"BSTAR":0.0002326596,"MEAN_MOTION_DOT":0.00009067,"MEAN_MOTION_DDOT":0},{"OBJECT_NAME":"FLOCK 4BE-31","OBJECT_ID":"2024-149W","EPOCH":"2026-07-15T18:45:56.801952","CLASSIFICATION_TYPE":"U","MEAN_MOTION":15.45174995,"ECCENTRICITY":0.00038039,"INCLINATION":97.3798,"RA_OF_ASC_NODE":282.5137,"ARG_OF_PERICENTER":150.1201,"MEAN_ANOMALY":210.0266,"EPHEMERIS_TYPE":0,"NORAD_CAT_ID":60488,"ELEMENT_SET_NO":999,"REV_AT_EPOCH":10679,"BSTAR":0.00030173889,"MEAN_MOTION_DOT":0.00014231,"MEAN_MOTION_DDOT":0},{"OBJECT_NAME":"FLOCK 4BE-20","OBJECT_ID":"2024-149X","EPOCH":"2026-07-15T05:09:17.633088","CLASSIFICATION_TYPE":"U","MEAN_MOTION":15.38813036,"ECCENTRICITY":0.00050367,"INCLINATION":97.3694,"RA_OF_ASC_NODE":278.3768,"ARG_OF_PERICENTER":154.2664,"MEAN_ANOMALY":205.8833,"EPHEMERIS_TYPE":0,"NORAD_CAT_ID":60489,"ELEMENT_SET_NO":999,"REV_AT_EPOCH":10652,"BSTAR":0.00023350148,"MEAN_MOTION_DOT":0.00008882,"MEAN_MOTION_DDOT":0},{"OBJECT_NAME":"FLOCK 4BE-23","OBJECT_ID":"2024-149Y","EPOCH":"2026-07-15T19:09:15.160032","CLASSIFICATION_TYPE":"U","MEAN_MOTION":15.38375662,"ECCENTRICITY":0.00047062,"INCLINATION":97.3779,"RA_OF_ASC_NODE":279.3539,"ARG_OF_PERICENTER":154.7187,"MEAN_ANOMALY":205.4289,"EPHEMERIS_TYPE":0,"NORAD_CAT_ID":60490,"ELEMENT_SET_NO":999,"REV_AT_EPOCH":10659,"BSTAR":0.00023157131,"MEAN_MOTION_DOT":0.00008682,"MEAN_MOTION_DDOT":0}]}
